[{"OBJECT_NAME":"SATGUS","OBJECT_ID":"2025-009DJ","EPOCH":"2026-03-09T16:57:39.644640","MEAN_MOTION":14.99840473,"ECCENTRICITY":0.00056702,"INCLINATION":97.7097,"RA_OF_ASC_NODE":150.9679,"ARG_OF_PERICENTER":96.3538,"MEAN_ANOMALY":263.8332,"EPHEMERIS_TYPE":0,"CLASSIFICATION_TYPE":"U","NORAD_CAT_ID":62713,"ELEMENT_SET_NO":999,"REV_AT_EPOCH":6264,"BSTAR":0.00076063433,"MEAN_MOTION_DOT":9.37e-5,"MEAN_MOTION_DDOT":0},{"OBJECT_NAME":"STARLINK-35769","OBJECT_ID":"2025-280X","EPOCH":"2026-03-09T21:57:25.785792","MEAN_MOTION":14.98327792,"ECCENTRICITY":0.00037575,"INCLINATION":70.0017,"RA_OF_ASC_NODE":333.7221,"ARG_OF_PERICENTER":286.9763,"MEAN_ANOMALY":73.0984,"EPHEMERIS_TYPE":0,"CLASSIFICATION_TYPE":"U","NORAD_CAT_ID":66842,"ELEMENT_SET_NO":999,"REV_AT_EPOCH":1611,"BSTAR":0.0013743089,"MEAN_MOTION_DOT":0.00016343,"MEAN_MOTION_DDOT":0}]
